{
  "type": "FeatureCollection",
  "features": [
    {
      "type": "Feature",
      "properties": {
        "norad_id": 39160,
        "name": "VNREDSAT 1",
        "group": "resource",
        "lat": 74.35504234965957,
        "lon": -112.81081231056481,
        "alt_km": 669.4027174442353,
        "timestamp": "2025-12-07T20:38:13.734446+00:00",
        "meta_object_name": "VNREDSAT 1",
        "meta_object_id": "2013-021B",
        "meta_epoch": "2025-12-07T07:03:07.344000",
        "meta_mean_motion": 14.64910667,
        "meta_eccentricity": 0.00013171,
        "meta_inclination": 97.9381,
        "meta_ra_of_asc_node": 36.7595,
        "meta_arg_of_pericenter": 83.0367,
        "meta_mean_anomaly": 277.0986,
        "meta_ephemeris_type": 0,
        "meta_classification_type": "U",
        "meta_norad_cat_id": 39160,
        "meta_element_set_no": 999,
        "meta_rev_at_epoch": 67219,
        "meta_bstar": 0.00025911027,
        "meta_mean_motion_dot": 1.34e-05,
        "meta_mean_motion_ddot": 0,
        "tle_line1": "1 39160U 13021B   25341.29383500  .00001340  00000+0  25911-3 0  9999",
        "tle_line2": "2 39160  97.9381  36.7595 0001317  83.0367 277.0986 14.64910667672190"
      },
      "geometry": {
        "type": "Point",
        "coordinates": [
          -112.81081231056481,
          74.35504234965957
        ]
      }
    },
    {
      "type": "Feature",
      "properties": {
        "norad_id": 39227,
        "name": "ARIRANG-5 (KOMPSAT-5)",
        "group": "resource",
        "lat": -27.505145386266243,
        "lon": -17.76068762010898,
        "alt_km": 560.781345734049,
        "timestamp": "2025-12-07T20:38:13.734456+00:00",
        "meta_object_name": "ARIRANG-5 (KOMPSAT-5)",
        "meta_object_id": "2013-042A",
        "meta_epoch": "2025-12-07T06:56:52.070784",
        "meta_mean_motion": 15.0452492,
        "meta_eccentricity": 0.00039081,
        "meta_inclination": 97.6149,
        "meta_ra_of_asc_node": 165.6717,
        "meta_arg_of_pericenter": 72.5059,
        "meta_mean_anomaly": 287.6594,
        "meta_ephemeris_type": 0,
        "meta_classification_type": "U",
        "meta_norad_cat_id": 39227,
        "meta_element_set_no": 999,
        "meta_rev_at_epoch": 67500,
        "meta_bstar": 0.00019914922,
        "meta_mean_motion_dot": 2.729e-05,
        "meta_mean_motion_ddot": 0,
        "tle_line1": "1 39227U 13042A   25341.28949156  .00002729  00000+0  19915-3 0  9999",
        "tle_line2": "2 39227  97.6149 165.6717 0003908  72.5059 287.6594 15.04524920675003"
      },
      "geometry": {
        "type": "Point",
        "coordinates": [
          -17.76068762010898,
          -27.505145386266243
        ]
      }
    },
    {
      "type": "Feature",
      "properties": {
        "norad_id": 39418,
        "name": "SKYSAT-A",
        "group": "resource",
        "lat": 80.08044420181763,
        "lon": -99.68434008574944,
        "alt_km": 537.29271930099,
        "timestamp": "2025-12-07T20:38:13.734467+00:00",
        "meta_object_name": "SKYSAT-A",
        "meta_object_id": "2013-066C",
        "meta_epoch": "2025-12-07T02:43:59.981088",
        "meta_mean_motion": 15.11539872,
        "meta_eccentricity": 0.0020563,
        "meta_inclination": 97.411,
        "meta_ra_of_asc_node": 31.4935,
        "meta_arg_of_pericenter": 257.4018,
        "meta_mean_anomaly": 102.4913,
        "meta_ephemeris_type": 0,
        "meta_classification_type": "U",
        "meta_norad_cat_id": 39418,
        "meta_element_set_no": 999,
        "meta_rev_at_epoch": 65945,
        "meta_bstar": 0.00033284969,
        "meta_mean_motion_dot": 5.607e-05,
        "meta_mean_motion_ddot": 0,
        "tle_line1": "1 39418U 13066C   25341.11388867  .00005607  00000+0  33285-3 0  9999",
        "tle_line2": "2 39418  97.4110  31.4935 0020563 257.4018 102.4913 15.11539872659458"
      },
      "geometry": {
        "type": "Point",
        "coordinates": [
          -99.68434008574944,
          80.08044420181763
        ]
      }
    },
    {
      "type": "Feature",
      "properties": {
        "norad_id": 39419,
        "name": "DUBAISAT-2",
        "group": "resource",
        "lat": -63.3371133252502,
        "lon": -12.489217093224394,
        "alt_km": 543.0679096154417,
        "timestamp": "2025-12-07T20:38:13.734477+00:00",
        "meta_object_name": "DUBAISAT-2",
        "meta_object_id": "2013-066D",
        "meta_epoch": "2025-12-07T06:35:28.885632",
        "meta_mean_motion": 15.08274429,
        "meta_eccentricity": 0.00110856,
        "meta_inclination": 97.4441,
        "meta_ra_of_asc_node": 331.8506,
        "meta_arg_of_pericenter": 340.9155,
        "meta_mean_anomaly": 19.1656,
        "meta_ephemeris_type": 0,
        "meta_classification_type": "U",
        "meta_norad_cat_id": 39419,
        "meta_element_set_no": 999,
        "meta_rev_at_epoch": 65744,
        "meta_bstar": 0.00053200883,
        "meta_mean_motion_dot": 8.199e-05,
        "meta_mean_motion_ddot": 0,
        "tle_line1": "1 39419U 13066D   25341.27463988  .00008199  00000+0  53201-3 0  9994",
        "tle_line2": "2 39419  97.4441 331.8506 0011085 340.9155  19.1656 15.08274429657441"
      },
      "geometry": {
        "type": "Point",
        "coordinates": [
          -12.489217093224394,
          -63.3371133252502
        ]
      }
    },
    {
      "type": "Feature",
      "properties": {
        "norad_id": 39574,
        "name": "GPM-CORE",
        "group": "resource",
        "lat": 41.99477662613334,
        "lon": 24.16122917868987,
        "alt_km": 431.11244515656745,
        "timestamp": "2025-12-07T20:38:13.734488+00:00",
        "meta_object_name": "GPM-CORE",
        "meta_object_id": "2014-009C",
        "meta_epoch": "2025-12-07T06:05:15.462816",
        "meta_mean_motion": 15.45363162,
        "meta_eccentricity": 0.00105235,
        "meta_inclination": 64.974,
        "meta_ra_of_asc_node": 231.0644,
        "meta_arg_of_pericenter": 269.7953,
        "meta_mean_anomaly": 90.1982,
        "meta_ephemeris_type": 0,
        "meta_classification_type": "U",
        "meta_norad_cat_id": 39574,
        "meta_element_set_no": 999,
        "meta_rev_at_epoch": 66816,
        "meta_bstar": 0.00044707692,
        "meta_mean_motion_dot": 0.00021316,
        "meta_mean_motion_ddot": 0,
        "tle_line1": "1 39574U 14009C   25341.25365119  .00021316  00000+0  44708-3 0  9997",
        "tle_line2": "2 39574  64.9740 231.0644 0010523 269.7953  90.1982 15.45363162668164"
      },
      "geometry": {
        "type": "Point",
        "coordinates": [
          24.16122917868987,
          41.99477662613334
        ]
      }
    },
    {
      "type": "Feature",
      "properties": {
        "norad_id": 39634,
        "name": "SENTINEL-1A",
        "group": "resource",
        "lat": 63.42363307082342,
        "lon": -29.53797900308104,
        "alt_km": 688.7541478162348,
        "timestamp": "2025-12-07T20:38:13.734499+00:00",
        "meta_object_name": "SENTINEL-1A",
        "meta_object_id": "2014-016A",
        "meta_epoch": "2025-12-07T07:10:34.945248",
        "meta_mean_motion": 14.59199239,
        "meta_eccentricity": 0.00012456,
        "meta_inclination": 98.1803,
        "meta_ra_of_asc_node": 346.6208,
        "meta_arg_of_pericenter": 89.0861,
        "meta_mean_anomaly": 271.0481,
        "meta_ephemeris_type": 0,
        "meta_classification_type": "U",
        "meta_norad_cat_id": 39634,
        "meta_element_set_no": 999,
        "meta_rev_at_epoch": 62203,
        "meta_bstar": 9.0704154e-05,
        "meta_mean_motion_dot": 3.82e-06,
        "meta_mean_motion_ddot": 0,
        "tle_line1": "1 39634U 14016A   25341.29901557  .00000382  00000+0  90704-4 0  9996",
        "tle_line2": "2 39634  98.1803 346.6208 0001245  89.0861 271.0481 14.59199239622037"
      },
      "geometry": {
        "type": "Point",
        "coordinates": [
          -29.53797900308104,
          63.42363307082342
        ]
      }
    },
    {
      "type": "Feature",
      "properties": {
        "norad_id": 39731,
        "name": "KAZEOSAT 1",
        "group": "resource",
        "lat": -20.088538805486227,
        "lon": 56.9535290201061,
        "alt_km": 757.230960134164,
        "timestamp": "2025-12-07T20:38:13.734508+00:00",
        "meta_object_name": "KAZEOSAT 1",
        "meta_object_id": "2014-024A",
        "meta_epoch": "2025-12-07T07:24:32.715072",
        "meta_mean_motion": 14.42057999,
        "meta_eccentricity": 0.00010723,
        "meta_inclination": 98.3441,
        "meta_ra_of_asc_node": 53.3379,
        "meta_arg_of_pericenter": 99.8646,
        "meta_mean_anomaly": 260.2664,
        "meta_ephemeris_type": 0,
        "meta_classification_type": "U",
        "meta_norad_cat_id": 39731,
        "meta_element_set_no": 999,
        "meta_rev_at_epoch": 61090,
        "meta_bstar": 0.0001694815,
        "meta_mean_motion_dot": 5.14e-06,
        "meta_mean_motion_ddot": 0,
        "tle_line1": "1 39731U 14024A   25341.30871198  .00000514  00000+0  16948-3 0  9996",
        "tle_line2": "2 39731  98.3441  53.3379 0001072  99.8646 260.2664 14.42057999610908"
      },
      "geometry": {
        "type": "Point",
        "coordinates": [
          56.9535290201061,
          -20.088538805486227
        ]
      }
    }
  ]
}